{"fetched_at":"2026-07-12T07:15:53.079Z","source":"https://celestrak.org/NORAD/elements/gp.php?NAME=PLEIADES&FORMAT=JSON","constellation":"pleiades-neo","records":[{"OBJECT_NAME":"PLEIADES NEO 3","OBJECT_ID":"2021-034A","EPOCH":"2026-07-11T23:16:50.316384","CLASSIFICATION_TYPE":"U","MEAN_MOTION":14.81678298,"ECCENTRICITY":0.00013718,"INCLINATION":97.8942,"RA_OF_ASC_NODE":267.3799,"ARG_OF_PERICENTER":94.8287,"MEAN_ANOMALY":265.3083,"EPHEMERIS_TYPE":0,"NORAD_CAT_ID":48268,"ELEMENT_SET_NO":999,"REV_AT_EPOCH":28132,"BSTAR":0.00010599128,"MEAN_MOTION_DOT":0.00000782,"MEAN_MOTION_DDOT":0},{"OBJECT_NAME":"PLEIADES NEO 4","OBJECT_ID":"2021-073E","EPOCH":"2026-07-11T22:28:12.436320","CLASSIFICATION_TYPE":"U","MEAN_MOTION":14.81672809,"ECCENTRICITY":0.00013388,"INCLINATION":97.894,"RA_OF_ASC_NODE":267.3427,"ARG_OF_PERICENTER":92.7533,"MEAN_ANOMALY":267.3833,"EPHEMERIS_TYPE":0,"NORAD_CAT_ID":49070,"ELEMENT_SET_NO":999,"REV_AT_EPOCH":26503,"BSTAR":0.000001168552,"MEAN_MOTION_DOT":-4.3e-7,"MEAN_MOTION_DDOT":0}]}
